{
  "type": "FeatureCollection",
  "features": [
    {
      "type": "Feature",
      "properties": {
        "norad_id": 25590,
        "name": "COSMOS 2361",
        "group": "musson",
        "lat": -56.581229773257064,
        "lon": 174.3988182723189,
        "alt_km": 975.2636367999721,
        "timestamp": "2025-12-13T10:41:26.035670+00:00",
        "meta_object_name": "COSMOS 2361",
        "meta_object_id": "1998-076A",
        "meta_epoch": "2025-12-12T23:19:22.425312",
        "meta_mean_motion": 13.73217544,
        "meta_eccentricity": 0.00300549,
        "meta_inclination": 82.9339,
        "meta_ra_of_asc_node": 343.9147,
        "meta_arg_of_pericenter": 264.9245,
        "meta_mean_anomaly": 152.1878,
        "meta_ephemeris_type": 0,
        "meta_classification_type": "U",
        "meta_norad_cat_id": 25590,
        "meta_element_set_no": 999,
        "meta_rev_at_epoch": 35114,
        "meta_bstar": 9.4131968e-05,
        "meta_mean_motion_dot": 1.02e-06,
        "meta_mean_motion_ddot": 0,
        "tle_line1": "1 25590U 98076A   25346.97178733  .00000102  00000+0  94132-4 0  9991",
        "tle_line2": "2 25590  82.9339 343.9147 0030054 264.9245 152.1878 13.73217544351145"
      },
      "geometry": {
        "type": "Point",
        "coordinates": [
          174.3988182723189,
          -56.581229773257064
        ]
      }
    },
    {
      "type": "Feature",
      "properties": {
        "norad_id": 26818,
        "name": "COSMOS 2378",
        "group": "musson",
        "lat": -46.947551027141984,
        "lon": -8.434972564799283,
        "alt_km": 999.5092914094321,
        "timestamp": "2025-12-13T10:41:26.035691+00:00",
        "meta_object_name": "COSMOS 2378",
        "meta_object_id": "2001-023A",
        "meta_epoch": "2025-12-13T00:42:49.582656",
        "meta_mean_motion": 13.74142032,
        "meta_eccentricity": 0.00324156,
        "meta_inclination": 82.9272,
        "meta_ra_of_asc_node": 359.5098,
        "meta_arg_of_pericenter": 204.0668,
        "meta_mean_anomaly": 212.9749,
        "meta_ephemeris_type": 0,
        "meta_classification_type": "U",
        "meta_norad_cat_id": 26818,
        "meta_element_set_no": 999,
        "meta_rev_at_epoch": 22927,
        "meta_bstar": 6.5833607e-05,
        "meta_mean_motion_dot": 7.7e-07,
        "meta_mean_motion_ddot": 0,
        "tle_line1": "1 26818U 01023A   25347.02974054  .00000077  00000+0  65834-4 0  9996",
        "tle_line2": "2 26818  82.9272 359.5098 0032415 204.0668 212.9749 13.74142032229270"
      },
      "geometry": {
        "type": "Point",
        "coordinates": [
          -8.434972564799283,
          -46.947551027141984
        ]
      }
    },
    {
      "type": "Feature",
      "properties": {
        "norad_id": 27436,
        "name": "COSMOS 2389",
        "group": "musson",
        "lat": 17.42534796711536,
        "lon": 124.23639806283441,
        "alt_km": 989.5610800966415,
        "timestamp": "2025-12-13T10:41:26.035706+00:00",
        "meta_object_name": "COSMOS 2389",
        "meta_object_id": "2002-026A",
        "meta_epoch": "2025-12-12T23:45:55.770048",
        "meta_mean_motion": 13.75154681,
        "meta_eccentricity": 0.00476101,
        "meta_inclination": 82.9503,
        "meta_ra_of_asc_node": 306.7991,
        "meta_arg_of_pericenter": 60.061,
        "meta_mean_anomaly": 9.4593,
        "meta_ephemeris_type": 0,
        "meta_classification_type": "U",
        "meta_norad_cat_id": 27436,
        "meta_element_set_no": 999,
        "meta_rev_at_epoch": 18152,
        "meta_bstar": 8.7448941e-05,
        "meta_mean_motion_dot": 1e-06,
        "meta_mean_motion_ddot": 0,
        "tle_line1": "1 27436U 02026A   25346.99022882  .00000100  00000+0  87449-4 0  9998",
        "tle_line2": "2 27436  82.9503 306.7991 0047610  60.0610   9.4593 13.75154681181525"
      },
      "geometry": {
        "type": "Point",
        "coordinates": [
          124.23639806283441,
          17.42534796711536
        ]
      }
    },
    {
      "type": "Feature",
      "properties": {
        "norad_id": 27818,
        "name": "COSMOS 2398",
        "group": "musson",
        "lat": 71.2084915325963,
        "lon": 70.84726985759579,
        "alt_km": 960.1626115866811,
        "timestamp": "2025-12-13T10:41:26.035718+00:00",
        "meta_object_name": "COSMOS 2398",
        "meta_object_id": "2003-023A",
        "meta_epoch": "2025-12-12T22:15:34.629696",
        "meta_mean_motion": 13.72385763,
        "meta_eccentricity": 0.00325849,
        "meta_inclination": 82.9485,
        "meta_ra_of_asc_node": 272.5599,
        "meta_arg_of_pericenter": 111.2927,
        "meta_mean_anomaly": 318.5835,
        "meta_ephemeris_type": 0,
        "meta_classification_type": "U",
        "meta_norad_cat_id": 27818,
        "meta_element_set_no": 999,
        "meta_rev_at_epoch": 12819,
        "meta_bstar": 7.4402366e-05,
        "meta_mean_motion_dot": 8.4e-07,
        "meta_mean_motion_ddot": 0,
        "tle_line1": "1 27818U 03023A   25346.92748414  .00000084  00000+0  74402-4 0  9995",
        "tle_line2": "2 27818  82.9485 272.5599 0032584 111.2927 318.5835 13.72385763128197"
      },
      "geometry": {
        "type": "Point",
        "coordinates": [
          70.84726985759579,
          71.2084915325963
        ]
      }
    },
    {
      "type": "Feature",
      "properties": {
        "norad_id": 28380,
        "name": "COSMOS 2407",
        "group": "musson",
        "lat": -46.93040459975365,
        "lon": -155.2251923796749,
        "alt_km": 988.9078840635566,
        "timestamp": "2025-12-13T10:41:26.035729+00:00",
        "meta_object_name": "COSMOS 2407",
        "meta_object_id": "2004-028A",
        "meta_epoch": "2025-12-13T00:58:51.959424",
        "meta_mean_motion": 13.76313686,
        "meta_eccentricity": 0.00403189,
        "meta_inclination": 82.9606,
        "meta_ra_of_asc_node": 212.6698,
        "meta_arg_of_pericenter": 54.0303,
        "meta_mean_anomaly": 55.7512,
        "meta_ephemeris_type": 0,
        "meta_classification_type": "U",
        "meta_norad_cat_id": 28380,
        "meta_element_set_no": 999,
        "meta_rev_at_epoch": 7427,
        "meta_bstar": 6.7225593e-05,
        "meta_mean_motion_dot": 8.1e-07,
        "meta_mean_motion_ddot": 0,
        "tle_line1": "1 28380U 04028A   25347.04087916  .00000081  00000+0  67226-4 0  9996",
        "tle_line2": "2 28380  82.9606 212.6698 0040318  54.0303  55.7512 13.76313686 74278"
      },
      "geometry": {
        "type": "Point",
        "coordinates": [
          -155.2251923796749,
          -46.93040459975365
        ]
      }
    },
    {
      "type": "Feature",
      "properties": {
        "norad_id": 28521,
        "name": "COSMOS 2414",
        "group": "musson",
        "lat": -65.51038786580742,
        "lon": 19.891930732653982,
        "alt_km": 952.7473801218857,
        "timestamp": "2025-12-13T10:41:26.035740+00:00",
        "meta_object_name": "COSMOS 2414",
        "meta_object_id": "2005-002A",
        "meta_epoch": "2025-12-12T23:07:44.524992",
        "meta_mean_motion": 13.87902886,
        "meta_eccentricity": 0.00409125,
        "meta_inclination": 82.9491,
        "meta_ra_of_asc_node": 184.4906,
        "meta_arg_of_pericenter": 139.0442,
        "meta_mean_anomaly": 221.3807,
        "meta_ephemeris_type": 0,
        "meta_classification_type": "U",
        "meta_norad_cat_id": 28521,
        "meta_element_set_no": 999,
        "meta_rev_at_epoch": 5798,
        "meta_bstar": 7.1566352e-05,
        "meta_mean_motion_dot": 1.02e-06,
        "meta_mean_motion_ddot": 0,
        "tle_line1": "1 28521U 05002A   25346.96370978  .00000102  00000+0  71566-4 0  9995",
        "tle_line2": "2 28521  82.9491 184.4906 0040912 139.0442 221.3807 13.87902886 57988"
      },
      "geometry": {
        "type": "Point",
        "coordinates": [
          19.891930732653982,
          -65.51038786580742
        ]
      }
    },
    {
      "type": "Feature",
      "properties": {
        "norad_id": 32052,
        "name": "COSMOS 2429",
        "group": "musson",
        "lat": -12.71337586800674,
        "lon": -18.804208786493223,
        "alt_km": 966.3921851568475,
        "timestamp": "2025-12-13T10:41:26.035751+00:00",
        "meta_object_name": "COSMOS 2429",
        "meta_object_id": "2007-038A",
        "meta_epoch": "2025-12-13T00:16:29.593632",
        "meta_mean_motion": 13.75149392,
        "meta_eccentricity": 0.00392224,
        "meta_inclination": 82.9804,
        "meta_ra_of_asc_node": 343.1084,
        "meta_arg_of_pericenter": 37.1258,
        "meta_mean_anomaly": 323.26,
        "meta_ephemeris_type": 0,
        "meta_classification_type": "U",
        "meta_norad_cat_id": 32052,
        "meta_element_set_no": 999,
        "meta_rev_at_epoch": 91606,
        "meta_bstar": 7.9965016e-05,
        "meta_mean_motion_dot": 9.2e-07,
        "meta_mean_motion_ddot": 0,
        "tle_line1": "1 32052U 07038A   25347.01145363  .00000092  00000+0  79965-4 0  9994",
        "tle_line2": "2 32052  82.9804 343.1084 0039222  37.1258 323.2600 13.75149392916064"
      },
      "geometry": {
        "type": "Point",
        "coordinates": [
          -18.804208786493223,
          -12.71337586800674
        ]
      }
    },
    {
      "type": "Feature",
      "properties": {
        "norad_id": 35635,
        "name": "COSMOS 2454",
        "group": "musson",
        "lat": -58.19633612785947,
        "lon": 156.60813042843475,
        "alt_km": 945.6897095076738,
        "timestamp": "2025-12-13T10:41:26.035762+00:00",
        "meta_object_name": "COSMOS 2454",
        "meta_object_id": "2009-039A",
        "meta_epoch": "2025-12-12T23:27:14.798304",
        "meta_mean_motion": 13.89928705,
        "meta_eccentricity": 0.00204304,
        "meta_inclination": 82.9554,
        "meta_ra_of_asc_node": 168.465,
        "meta_arg_of_pericenter": 73.1068,
        "meta_mean_anomaly": 46.8884,
        "meta_ephemeris_type": 0,
        "meta_classification_type": "U",
        "meta_norad_cat_id": 35635,
        "meta_element_set_no": 999,
        "meta_rev_at_epoch": 83153,
        "meta_bstar": 8.512832e-05,
        "meta_mean_motion_dot": 1.21e-06,
        "meta_mean_motion_ddot": 0,
        "tle_line1": "1 35635U 09039A   25346.97725461  .00000121  00000+0  85128-4 0  9995",
        "tle_line2": "2 35635  82.9554 168.4650 0020430  73.1068  46.8884 13.89928705831531"
      },
      "geometry": {
        "type": "Point",
        "coordinates": [
          156.60813042843475,
          -58.19633612785947
        ]
      }
    },
    {
      "type": "Feature",
      "properties": {
        "norad_id": 36519,
        "name": "COSMOS 2463",
        "group": "musson",
        "lat": -63.890534454321724,
        "lon": 11.59358380885184,
        "alt_km": 975.5382205210599,
        "timestamp": "2025-12-13T10:41:26.035773+00:00",
        "meta_object_name": "COSMOS 2463",
        "meta_object_id": "2010-017A",
        "meta_epoch": "2025-12-12T21:50:49.830144",
        "meta_mean_motion": 13.71649183,
        "meta_eccentricity": 0.00347944,
        "meta_inclination": 82.9613,
        "meta_ra_of_asc_node": 26.5874,
        "meta_arg_of_pericenter": 287.576,
        "meta_mean_anomaly": 246.6116,
        "meta_ephemeris_type": 0,
        "meta_classification_type": "U",
        "meta_norad_cat_id": 36519,
        "meta_element_set_no": 999,
        "meta_rev_at_epoch": 78239,
        "meta_bstar": 5.5201203e-05,
        "meta_mean_motion_dot": 6.5e-07,
        "meta_mean_motion_ddot": 0,
        "tle_line1": "1 36519U 10017A   25346.91029896  .00000065  00000+0  55201-4 0  9994",
        "tle_line2": "2 36519  82.9613  26.5874 0034794 287.5760 246.6116 13.71649183782397"
      },
      "geometry": {
        "type": "Point",
        "coordinates": [
          11.59358380885184,
          -63.890534454321724
        ]
      }
    }
  ]
}